P/2009 U4 (McNaught),e,10.0803,55.3490,259.8219,5.076523,0.0861697,0.67565512,10.8719,06/01.0/2021,2000,g 14.0,4.0
# From MPEC 2021-L04
C/2010 U3 (Boattini),e,55.5283,43.0215,88.0621,2286,0.0000090,0.99630542,0.0000,02/25.6102/2019,2000,g  1.0,4.0
# From MPC105235
P/2009 WX51 (Catalina),e,9.5948,31.6767,118.0907,3.080936,0.1822553,0.74027677,35.8386,06/01.0/2021,2000,g 19.0,2.0
# From MPC 74247
P/2009 Y2 (Kowalski),e,29.9340,262.0256,172.1480,6.549878,0.0587969,0.63603418,241.6833,06/01.0/2021,2000,g 13.0,4.0
# From MPC 75711
P/2010 A3 (Hill),e,14.8405,63.9004,42.0965,6.077947,0.0657762,0.73346741,269.1694,06/01.0/2021,2000,g 14.0,4.0
# From MPC 75008
P/2010 C1 (Scotti),e,9.1281,141.8861,3.6787,7.103484,0.0520591,0.25880546,219.6089,06/01.0/2021,2000,g  9.5,4.0
# From MPC 75008
P/2010 D2 (WISE),e,57.0857,319.8910,120.0429,6.716951,0.0566169,0.45098930,233.5945,06/01.0/2021,2000,g 16.0,4.0
# From MPC 75009
P/2010 E2 (Jarnac),e,15.3965,177.8235,8.3611,8.639021,0.0388157,0.71990508,158.3239,06/01.0/2021,2000,g 14.0,4.0
# From MPC 72851
P/2010 H2 (Vales),e,14.2741,64.1981,128.1212,3.833613,0.1313082,0.19585549,178.7563,06/01.0/2021,2000,g  6.0,4.0
# From MPC 70361
P/2010 H3 (SOHO),e,23.0825,77.0984,26.1430,3.037791,0.1861518,0.98537945,0.0000,02/07.9637/2021,2000,g 20.0,2.0
# From MPC 73463
P/2010 H4 (Scotti),e,2.3185,44.7406,179.5312,6.591936,0.0582351,0.26713227,233.0014,06/01.0/2021,2000,g 10.5,4.0
# From MPC 74637
P/2010 H5 (Scotti),e,14.0633,24.8052,175.1844,7.162017,0.0514222,0.15321329,209.5532,06/01.0/2021,2000,g 13.0,2.0
# From MPC 98558
P/2010 J3 (McMillan),e,13.2858,106.4185,157.5969,8.972900,0.0366695,0.72689116,144.0518,06/01.0/2021,2000,g 11.0,4.0
# From MPC 84315
P/2010 JC81 (WISE),e,38.7507,30.8487,12.4309,8.109600,0.0426781,0.77701826,157.6951,06/01.0/2021,2000,g  9.0,4.0
# From MPC 74248
P/2010 T2 (PANSTARRS),e,7.8983,58.8871,353.3889,5.528747,0.0758165,0.32153820,282.2181,06/01.0/2021,2000,g 11.5,4.0
# From MPC 98558
P/2010 TO20 (LINEAR-Grauer),e,2.4789,43.2934,266.8268,5.830644,0.0700050,0.05499350,322.3995,06/01.0/2021,2000,g  9.0,4.0
# From MPC 82316
P/2010 U1 (Boattini),e,8.2151,280.7083,85.9631,6.509651,0.0593427,0.24841097,245.9505,06/01.0/2021,2000,g  9.5,4.0
# From MPC119994
C/2010 U3 (Boattini),e,55.5283,43.0215,88.0623,2281,0.0000090,0.99629838,0.0000,02/25.6131/2019,2000,g  1.0,4.0
# From MPC 79021
P/2010 UH55 (Spacewatch),e,8.0418,232.9500,225.1753,6.652628,0.0574400,0.56337575,212.7778,06/01.0/2021,2000,g 11.0,4.0
# From MPC 75009
P/2010 WK (LINEAR),e,11.4010,11.3228,40.9727,5.761310,0.0712725,0.68995863,278.2458,06/01.0/2021,2000,g 14.5,2.0
# From MPC 82317
P/2011 A2 (Scotti),e,4.4749,54.6765,94.5148,3.105957,0.1800574,0.49948721,326.9336,06/01.0/2021,2000,g 16.5,4.0
# From MPC 84021
P/2011 C2 (Gibbs),e,10.8850,12.1243,160.9050,7.413815,0.0488249,0.26889936,167.9953,06/01.0/2021,2000,g  9.0,4.0
# From MPEC 2021-L04
P/2011 FR143 (Lemmon),e,15.9819,190.9511,350.0919,6.858580,0.0548723,0.45070352,205.5397,06/01.0/2021,2000,g 14.0,2.0
# From MPEC 2021-L04
C/2014 B1 (Schwartz),e,28.4094,161.4184,345.7372,6044,0.0000021,0.99841970,0.0000,09/08.0586/2017,2000,g  4.0,4.0
# From MPEC 2021-L04
C/2016 Q2 (PANSTARRS),h,05/11.8930/2021,109.3883,322.2957,84.5291,1.000734,7.081899,2000,6.0,4.0
# From MPEC 2021-L04
C/2017 K2 (PANSTARRS),h,12/19.7541/2022,87.5522,88.2452,236.1883,1.000557,1.797577,2000,1.5,4.0
# From MPEC 2021-L04
C/2017 K5 (PANSTARRS),h,03/26.7718/2020,82.2334,102.3716,172.0125,1.006053,7.680994,2000,5.0,4.0
# From MPEC 2021-L04
C/2017 O1 (ASASSN),e,39.9277,25.7454,20.8374,359.3056,0.0001447,0.99584389,0.0000,10/15.0640/2017,2000,g 11.0,4.0
# From MPEC 2021-L04
C/2017 T2 (PANSTARRS),e,57.2258,64.3769,92.9997,2783,0.0000067,0.99941951,0.0000,05/04.9201/2020,2000,g  5.0,4.0
# From MPEC 2021-L04
C/2017 U7 (PANSTARRS),h,09/14.1535/2019,142.5908,276.2446,326.3168,1.000506,6.423383,2000,8.3,2.0
# From MPEC 2021-L04
C/2017 Y2 (PANSTARRS),h,11/04.7760/2020,128.4115,65.9943,147.8960,1.000747,4.632270,2000,15.0,4.0
# From MPEC 2021-L04
C/2018 F4 (PANSTARRS),h,12/04.1013/2019,78.0911,26.5147,263.2292,1.001201,3.440735,2000,11.0,6.0
# From MPEC 2021-L04
C/2018 N2 (ASASSN),h,11/10.9852/2019,77.5308,25.2374,24.4092,1.000169,3.124956,2000,6.0,4.0
# From MPC 82317
P/2011 JB15 (Spacewatch-Boattini),e,19.1472,153.5846,111.0446,7.357115,0.0493904,0.31758151,168.7564,06/01.0/2021,2000,g  9.0,4.0
# From MPEC 2020-AA5
C/2011 KP36 (Spacewatch),e,18.9860,173.2793,180.7073,39.00658,0.0040457,0.87486347,7.4031,06/01.0/2021,2000,g  4.5,4.0
# From MPC 87913
P/2011 N1 (ASH),e,35.7247,77.5948,330.3365,6.248917,0.0630953,0.54403214,208.2099,06/01.0/2021,2000,g 11.5,4.0
# From MPC 75714
P/2011 NO1 (Elenin),e,15.2482,295.8000,263.7954,5.524917,0.0758954,0.77468117,287.2094,06/01.0/2021,2000,g 15.0,4.0
# From MPC 82318
P/2011 P1 (McNaught),e,5.6596,4.2374,348.9343,7.466116,0.0483128,0.32740724,191.6363,06/01.0/2021,2000,g  9.0,4.0
# From MPC 77806
P/2011 Q3 (McNaught),e,6.0573,32.0266,310.9885,4.970382,0.0889446,0.53270156,320.4698,06/01.0/2021,2000,g 13.5,4.0
# From MPC 98558
P/2011 S1 (Gibbs),e,2.6847,218.8800,192.4476,8.585504,0.0391792,0.20054394,97.3913,06/01.0/2021,2000,g  8.0,4.0
# From MPC 79022
P/2011 UA134 (Spacewatch-PANSTARRS),e,10.4411,40.4068,32.4310,5.606196,0.0742509,0.62933661,259.1656,06/01.0/2021,2000,g 17.5,4.0
# From MPC 77406
P/2011 V1 (Boattini),e,7.3759,46.8308,269.2874,3.855493,0.1301919,0.55058474,126.6438,06/01.0/2021,2000,g 15.5,4.0
# From MPC 82718
P/2011 W1 (PANSTARRS),e,3.7186,161.7894,282.7438,4.661071,0.0979435,0.28727229,335.3461,06/01.0/2021,2000,g 11.5,4.0
# From MPC 79342
P/2011 Y2 (Boattini),e,6.3718,309.3654,131.9153,6.239694,0.0632352,0.70943611,213.4374,06/01.0/2021,2000,g 15.0,4.0
# From MPC 94669
P/2012 B1 (PANSTARRS),e,7.6132,36.2094,162.5489,6.529231,0.0590760,0.40937921,169.8435,06/01.0/2021,2000,g  9.0,4.0
# From MPC 78590
P/2012 C3 (PANSTARRS),e,9.0920,135.3677,344.9542,9.748681,0.0323806,0.63011148,359.9758,10/06.0/2011,2000,g 13.0,4.0
# From MPC 84931
P/2012 F2 (PANSTARRS),e,14.7174,227.0383,33.2893,6.330316,0.0618822,0.54234400,183.8655,06/01.0/2021,2000,g 12.0,4.0
# From MPC 79344
P/2012 G1 (PANSTARRS),e,11.6925,282.5440,286.1149,4.172871,0.1156250,0.38072240,359.9500,06/01.0/2012,2000,g 15.0,4.0
# From MPC 80898
P/2012 K3 (Gibbs),e,13.1945,125.8089,172.1852,3.625712,0.1427625,0.42335200,93.2933,06/01.0/2021,2000,g 15.0,4.0
# From MPC 88326
P/2012 NJ (La Sagra),e,84.6628,315.5452,338.3474,8.461250,0.0400454,0.84720358,131.1242,06/01.0/2021,2000,g 14.5,4.0
# From MPC 81470
P/2012 O1 (McNaught),e,7.4314,91.9765,238.2400,3.540656,0.1479376,0.59458020,121.5210,06/01.0/2021,2000,g 17.5,4.0
# From MPC 80899
P/2012 O2 (McNaught),e,24.4855,120.6800,183.4318,3.623970,0.1428654,0.53270600,108.1289,06/01.0/2021,2000,g 17.0,4.0
# From MPC 82720
P/2012 O3 (McNaught),e,16.6158,336.4133,344.7320,4.573370,0.1007742,0.64699808,323.4434,06/01.0/2021,2000,g 16.5,4.0
# From MPC 82720
P/2012 S2 (La Sagra),e,8.6857,51.1878,312.4794,4.414225,0.1062729,0.69132752,343.7666,06/01.0/2021,2000,g 17.0,4.0
# From MPC 82320
P/2012 T2 (PANSTARRS),e,12.5586,73.7229,310.4527,5.735252,0.0717588,0.16125870,212.6063,06/01.0/2021,2000,g 10.0,4.0
# From MPC 80900
P/2012 T3 (PANSTARRS),e,9.5673,114.4044,195.4711,6.151691,0.0645970,0.61724647,214.1934,06/01.0/2021,2000,g 15.0,4.0
# From MPC 87914
P/2012 TK8 (Tenagra),e,6.3402,288.9642,128.0156,4.127050,0.1175559,0.27420181,342.7097,06/01.0/2021,2000,g 13.0,4.0
# From MPC 82720
P/2012 U2 (PANSTARRS),e,10.7538,185.2940,228.2728,7.139558,0.0516651,0.49839135,161.4993,06/01.0/2021,2000,g 12.5,4.0
# From MPC 84024
P/2012 US27 (Siding Spring),e,39.3424,49.1788,0.8057,5.166444,0.0839299,0.64764106,256.0165,06/01.0/2021,2000,g 13.5,4.0
# From MPC 82721
P/2012 WA34 (Lemmon-PANSTARRS),e,6.0921,94.1514,354.4122,4.736082,0.0956258,0.34580175,287.2306,06/01.0/2021,2000,g 13.5,4.0
# From MPC 82721
P/2013 AL76 (Catalina),e,144.8418,145.9808,27.0943,6.497036,0.0595156,0.68625522,184.3135,06/01.0/2021,2000,g 16.0,4.0
# From MPC 91612
P/2013 G1 (Kowalski),e,5.4649,221.3833,51.4404,6.889891,0.0544986,0.51277944,148.6073,06/01.0/2021,2000,g 11.0,4.0
# From MPC 84025
P/2013 G4 (PANSTARRS),e,5.9164,339.6390,214.6838,4.440025,0.1053479,0.40951530,319.6017,06/01.0/2021,2000,g 15.0,4.0
# From MPC 91613
P/2013 J2 (McNaught),e,15.5311,289.4166,37.7547,6.222955,0.0634906,0.65763334,179.8956,06/01.0/2021,2000,g 13.0,4.0
# From MPC 86229
P/2013 N3 (PANSTARRS),e,2.1736,17.4756,323.8888,7.391354,0.0490476,0.59325276,130.5614,06/01.0/2021,2000,g 13.0,4.0
# From MPC 85834
P/2013 N5 (PANSTARRS),e,23.4364,187.1607,176.8957,6.798508,0.0556011,0.73210813,160.6700,06/01.0/2021,2000,g 17.0,4.0
# From MPC 85834
P/2013 P1 (PANSTARRS),e,18.7233,160.6007,138.1512,8.571678,0.0392740,0.60589165,118.3291,06/01.0/2021,2000,g 12.0,4.0
# From MPC 94671
P/2013 R3 (Catalina-PANSTARRS),e,0.8653,342.0008,11.1710,3.033693,0.1865292,0.27523204,169.1790,06/01.0/2021,2000,g 14.0,4.0
# From unp
P/2013 R3-A (Catalina-PANSTARRS),e,0.8647,341.9677,11.2099,3.033551,0.1865422,0.27520153,169.2137,06/01.0/2021,2000,g  9.0,4.0
# From MPEC 2015-M77
P/2013 R3-B (Catalina-PANSTARRS),e,0.8659,342.0235,11.1449,3.033769,0.1865221,0.27524705,169.1604,06/01.0/2021,2000,g  9.0,4.0
# From MPC 85835
P/2013 T1 (PANSTARRS),e,24.2862,10.0835,346.0976,5.860303,0.0694743,0.62389301,198.6474,06/01.0/2021,2000,g 16.5,4.0
# From MPC 86643
P/2013 T2 (Schwartz),e,9.4565,0.8084,345.5098,3.490141,0.1511609,0.50123100,82.8874,06/01.0/2021,2000,g 16.0,4.0
# From MPC 91613
P/2013 W1 (PANSTARRS),e,4.6955,117.8475,1.2812,3.490066,0.1511658,0.59276682,39.8643,06/01.0/2021,2000,g 17.5,4.0
# From MPC111767
C/2013 X1 (PANSTARRS),h,04/19.4537/2016,163.1938,131.5733,165.2089,1.000540,1.325562,2000,10.5,2.0
# From MPC101095
P/2013 YG46 (Spacewatch),e,7.8559,48.8525,242.5312,3.275975,0.1662238,0.45489122,262.9060,06/01.0/2021,2000,g 10.0,4.0
# From MPC 89728
